OBJECT_NAME,OBJECT_ID,EPOCH,MEAN_MOTION,ECCENTRICITY,INCLINATION,RA_OF_ASC_NODE,ARG_OF_PERICENTER,MEAN_ANOMALY,EPHEMERIS_TYPE,CLASSIFICATION_TYPE,NORAD_CAT_ID,ELEMENT_SET_NO,REV_AT_EPOCH,BSTAR,MEAN_MOTION_DOT,MEAN_MOTION_DDOT
LEMUR-2-ROUNDTRIPPER,2025-009DG,2026-07-13T04:10:20.703936,15.04211677,.00044116,97.7252,276.8201,68.0199,292.1495,0,U,62711,999,8153,.38802888E-3,.5331E-4,0
LEMUR-2-MYNAMEISJEFF,2025-009DH,2026-07-13T04:08:08.922336,15.04203117,.00039101,97.7301,277.2155,101.5856,258.5808,0,U,62712,999,8153,.37504573E-3,.5149E-4,0
LEMUR-2-LEIA-PHILIP,2025-052AN,2026-07-12T15:56:21.590592,14.97389132,.00050924,97.6812,85.1833,125.0201,235.1500,0,U,63246,999,7248,.56355217E-4,.597E-5,0
LEMUR-2-LIA-MARTIN,2025-052AQ,2026-07-13T03:03:21.983328,14.98021131,.00054022,97.6876,86.1537,95.0747,265.1092,0,U,63248,999,7256,.25087482E-3,.2906E-4,0
LEMUR-2-DELOITTE-1,2025-052BB,2026-07-12T16:57:30.590784,14.97770317,.00024509,97.6883,86.0697,67.7345,292.4137,0,U,63259,999,7251,.1903792E-3,.2176E-4,0
LEMUR-2-EMERSONROSE,2025-052BD,2026-07-13T02:58:10.201152,14.99279904,.0002783,97.6887,87.0891,64.4353,295.7157,0,U,63261,999,7262,.25419905E-3,.3044E-4,0
LEMUR-2-MARACHE-FRAN,2025-052BE,2026-07-12T16:20:37.711392,15.00306023,.00048952,97.6849,87.0169,264.0208,96.0458,0,U,63262,999,7258,.15633726E-3,.19E-4,0
LEMUR-2-THEFALCONER,2025-052BG,2026-07-13T04:54:21.930336,14.97559099,.00003597,97.6842,86.1531,346.8001,13.3212,0,U,63264,999,7258,.11160905E-3,.1245E-4,0
LEMUR-2-UNTITLED-SC,2025-061A,2026-07-12T20:55:53.594112,15.13638131,.00189969,97.5648,169.0511,170.8759,189.2821,0,U,63351,999,7147,.13320891E-3,.2336E-4,0
LEMUR-2-ESPERANZA,2025-061B,2026-07-13T05:51:44.524512,15.13745158,.00186421,97.5656,169.5204,168.8182,191.3467,0,U,63352,999,7153,.89796873E-4,.1558E-4,0
LEMUR-2-KREMPEL-BRO2,2025-061C,2026-07-12T22:24:02.531232,15.14170656,.00197403,97.5701,169.7776,162.8616,197.3287,0,U,63353,999,7150,.12399488E-3,.2204E-4,0
LEMUR-2-THERMORAPTOR,2025-061D,2026-07-12T21:56:13.316928,15.14253556,.00195191,97.5707,169.8390,161.7454,198.4482,0,U,63354,999,7150,.10599977E-3,.1879E-4,0
LEMUR-2-NEUROSPICY,2025-061E,2026-07-12T21:12:34.843968,15.14371468,.00172346,97.5633,169.4153,164.6418,195.5340,0,U,63355,999,7150,.135776E-3,.2431E-4,0
LEMUR-2-TILLINFINITY,2025-061F,2026-07-13T04:09:33.122592,15.14956079,.00188705,97.5621,170.0118,152.5222,207.7012,0,U,63356,999,7157,.10403319E-3,.188E-4,0
LEMUR-2-KREMPEL-BRO1,2025-061G,2026-07-12T21:15:38.091456,15.14762625,.00194205,97.5621,169.6347,154.8112,205.4072,0,U,63357,999,7152,.13262025E-3,.2402E-4,0
LEMUR-2-LANGER2SPACE,2025-061H,2026-07-12T23:36:22.113792,15.14456891,.00171973,97.5626,169.5355,162.6831,197.4991,0,U,63358,999,7152,.10343946E-3,.1841E-4,0
LEMUR-2-BALTO,2025-052BH,2026-07-12T15:58:13.553760,15.00350179,.00052354,97.6934,86.9871,338.2510,21.8491,0,U,63395,999,7258,.23213036E-3,.2854E-4,0
LEMUR-2-KRISH,2025-135AK,2026-07-12T19:40:53.081184,14.96440074,.000155,97.7772,308.5248,96.3238,263.8160,0,U,64561,999,5775,.22845294E-3,.2533E-4,0
LEMUR-2-HUBBLE-4,2025-135AP,2026-07-13T06:22:16.300416,14.93682329,.00025181,97.7717,307.8688,167.2748,192.8536,0,U,64565,999,5776,.10981498E-3,.1104E-4,0
LEMUR-2-SEJONG-2,2025-135BL,2026-07-13T07:26:02.260896,14.96903163,.00038308,97.7705,309.1574,227.9084,132.1812,0,U,64586,999,5785,.19078683E-3,.2131E-4,0
LEMUR-2-HUBBLE-5,2025-135BT,2026-07-13T06:35:58.564896,14.94210500,.00042232,97.7739,308.5451,243.2055,116.8733,0,U,64840,999,5780,.10103138E-3,.1025E-4,0
LEMUR-2-KARENDARRELL,2025-135BU,2026-07-13T04:42:02.870784,15.00482255,.00122474,97.7709,310.3687,110.7929,249.4607,0,U,64841,999,5791,.35153913E-3,.4373E-4,0
LEMUR-2-LUCILLE-ROSE,2025-135BV,2026-07-12T20:03:38.899296,15.00473532,.00146515,97.7710,310.0446,196.2246,163.8510,0,U,65403,999,5248,.33730773E-3,.4195E-4,0
OTTER SDM,2025-276N,2026-07-13T04:31:08.425344,15.20042584,.0004241,97.4209,267.2358,263.4653,96.6100,0,U,66678,999,3436,.16462E-3,.3482E-4,0
LEMUR-2-STAS-GORBUK,2025-276W,2026-07-12T17:57:30.731904,15.19644338,.00034564,97.4243,266.8551,260.6907,99.3937,0,U,66686,999,3429,.18039849E-3,.3778E-4,0
LEMUR-2-TEODOR,2025-276DG,2026-07-12T18:28:26.063040,15.21322077,.00022806,97.4147,267.1448,89.7179,270.4318,0,U,66768,999,3433,.16438721E-3,.361E-4,0
LEMUR-2-LAILA,2025-276DQ,2026-07-13T03:13:40.341216,15.21550887,.00029115,97.4170,267.6416,97.3279,262.8287,0,U,66776,999,3439,.16683159E-3,.369E-4,0
LEMUR-2-CELIJO-SB-PK,2025-276DW,2026-07-12T23:36:49.779072,15.00273190,.0007063,97.5201,263.9101,69.7393,290.4590,0,U,66781,999,2649,.28425417E-3,.3504E-4,0
